OBJECT_NAME,OBJECT_ID,EPOCH,MEAN_MOTION,ECCENTRICITY,INCLINATION,RA_OF_ASC_NODE,ARG_OF_PERICENTER,MEAN_ANOMALY,EPHEMERIS_TYPE,CLASSIFICATION_TYPE,NORAD_CAT_ID,ELEMENT_SET_NO,REV_AT_EPOCH,BSTAR,MEAN_MOTION_DOT,MEAN_MOTION_DDOT
STARLINK-11585 [DTC],2025-057C,2026-07-02T17:41:45.985056,15.70869523,.0000378,42.9963,290.8839,323.4133,36.6708,0,U,63309,999,7530,.12917E-2,.168916E-2,0
STARLINK-11587 [DTC],2025-057D,2026-07-02T17:03:42.477120,15.70800934,.0002004,43.0007,291.5654,277.2431,82.8208,0,U,63310,999,7526,.12112E-2,.157685E-2,0
STARLINK-11589 [DTC],2025-057E,2026-07-02T17:11:21.604992,15.70834612,.0001968,42.9994,291.6087,276.8356,83.2288,0,U,63311,999,7526,.13986E-2,.182971E-2,0
STARLINK-11650 [DTC],2025-057F,2026-07-02T13:46:36.719040,15.70821512,.0001723,42.9998,292.2522,263.1789,96.8882,0,U,63312,999,7527,.16025E-2,.210291E-2,0
STARLINK-11648 [DTC],2025-057G,2026-07-02T16:48:25.362720,15.70832619,.0001552,43.0003,291.4784,294.9341,65.1365,0,U,63313,999,7526,.11604E-2,.15113E-2,0
STARLINK-11640 [DTC],2025-057H,2026-07-02T13:37:39.100224,15.70948745,.0002415,43.0000,292.2002,244.8798,115.1820,0,U,63314,999,7524,.12554E-2,.164623E-2,0
STARLINK-11652 [DTC],2025-057J,2026-07-02T16:25:29.327808,15.71022258,.0002162,42.9995,291.3482,269.2669,90.7951,0,U,63315,999,7529,.20532E-2,.273961E-2,0
STARLINK-11645 [DTC],2025-057K,2026-07-02T13:52:56.771040,15.70880209,.0001784,43.0010,292.2854,273.9294,86.1370,0,U,63316,999,7527,.11054E-2,.144121E-2,0
STARLINK-11633 [DTC],2025-057L,2026-07-02T17:18:49.046400,15.70856904,.0001533,43.0002,290.7512,290.6209,69.4494,0,U,63317,999,7527,.12018E-2,.156812E-2,0
STARLINK-11593 [DTC],2025-057M,2026-07-02T17:34:06.466656,15.70856798,.0001214,42.9995,290.8367,279.3077,80.7653,0,U,63318,999,7530,.12997E-2,.169897E-2,0
STARLINK-11588 [DTC],2025-057N,2026-07-01T15:52:51.985056,15.70966012,.00022982,43.0008,297.4351,273.5113,86.5492,0,U,63319,999,7510,.16479561E-2,.217796E-2,0
STARLINK-33671,2025-057P,2026-07-02T18:59:18.449664,15.27612428,.0000226,43.0007,90.1826,147.3658,212.7208,0,U,63320,999,7350,.75228E-3,.20517E-3,0
STARLINK-33650,2025-057Q,2026-07-02T11:11:57.726240,15.27601810,.0001707,43.0002,102.4290,282.6421,77.4240,0,U,63321,999,7329,.94494E-3,.25849E-3,0
STARLINK-33689,2025-057R,2026-07-02T18:51:39.011616,15.27581516,.0000689,42.9991,100.5226,145.3440,214.7456,0,U,63322,999,7338,.10007E-2,.2738E-3,0
STARLINK-33607,2025-057S,2026-07-02T17:48:56.795328,15.27573849,.0001156,43.0010,101.0656,264.4949,95.5771,0,U,63323,999,7333,.21839E-3,.5751E-4,0
STARLINK-33619,2025-057T,2026-07-02T18:38:43.169856,15.27551344,.0001856,43.0039,100.4526,278.9750,81.0892,0,U,63324,999,7338,.13187E-2,.36172E-3,0
STARLINK-33612,2025-057U,2026-07-02T18:24:06.935616,15.27591723,.0001332,43.0010,101.2406,241.3150,118.7568,0,U,63325,999,7337,.94493E-3,.25841E-3,0
STARLINK-33672,2025-057V,2026-07-02T19:00:54.066816,15.27560838,.0001115,42.9989,100.5542,258.7870,101.2856,0,U,63326,999,7338,.40533E-3,.10902E-3,0
STARLINK-33625,2025-057W,2026-07-02T18:12:20.137824,15.27588347,.0002162,43.0009,93.3960,272.8121,87.2483,0,U,63327,999,7346,.10811E-2,.29617E-3,0
STARLINK-33699,2025-057X,2026-07-02T17:55:40.767168,15.27589260,.0000441,43.0002,93.3039,198.5008,161.5827,0,U,63328,999,7342,.70366E-3,.19157E-3,0
STARLINK-33674,2025-057Y,2026-07-02T18:00:02.935008,15.27571692,.0000539,43.0015,101.1195,295.1974,64.8821,0,U,63329,999,7337,.64835E-3,.17617E-3,0
YUNYAO-1 43,2025-059A,2026-07-02T18:44:59.637120,15.11019669,.0015703,97.6112,5.0615,99.7864,260.5140,0,U,63344,999,7065,.268E-3,.4425E-4,0
YUNYAO-1 44,2025-059B,2026-07-02T18:24:37.827072,15.11131568,.0018452,97.6101,5.0046,103.5563,256.7723,0,U,63345,999,7065,.24131E-3,.3995E-4,0
YUNYAO-1 45,2025-059C,2026-07-02T18:12:45.035712,15.11121773,.0017503,97.6127,5.1848,103.0362,257.2823,0,U,63346,999,7065,.21692E-3,.3582E-4,0
YUNYAO-1 46,2025-059D,2026-07-02T17:25:35.832288,15.11011959,.0013236,97.6120,5.0440,91.9104,268.3642,0,U,63347,999,7064,.26108E-3,.4305E-4,0
YUNYAO-1 47,2025-059E,2026-07-02T18:51:09.875808,15.11288523,.0017403,97.6093,5.1057,104.0485,256.2681,0,U,63348,999,7065,.26828E-3,.4466E-4,0
YUNYAO-1 48,2025-059F,2026-07-02T18:21:42.536160,15.11354219,.0016912,97.6107,5.2047,105.5485,254.7613,0,U,63349,999,7065,.22599E-3,.3758E-4,0
LEMUR-2-UNTITLED-SC,2025-061A,2026-07-02T16:35:32.349696,15.13576910,.0017905,97.5644,158.9412,206.6413,153.3900,0,U,63351,999,6993,.24444E-3,.4335E-4,0
LEMUR-2-ESPERANZA,2025-061B,2026-07-02T16:01:15.763584,15.13670577,.0017504,97.5653,159.0146,205.7921,154.2440,0,U,63352,999,6993,.24504E-3,.4356E-4,0
LEMUR-2-KREMPEL-BRO2,2025-061C,2026-07-02T16:33:40.041792,15.14107661,.0018655,97.5699,159.5902,198.2547,161.8017,0,U,63353,999,6995,.24787E-3,.4465E-4,0
