[{"name":"STARLINK-11585 [DTC]","l1":"1 63309U 25057C   26183.73733779  .00168916  00000+0  12917-2 0  9998","l2":"2 63309  42.9963 290.8839 0000378 323.4133  36.6708 15.70869523 75303","cat":"starlink"},{"name":"STARLINK-11587 [DTC]","l1":"1 63310U 25057D   26183.71090830  .00157685  00000+0  12112-2 0  9990","l2":"2 63310  43.0007 291.5654 0002004 277.2431  82.8208 15.70800934 75268","cat":"starlink"},{"name":"STARLINK-11589 [DTC]","l1":"1 63311U 25057E   26183.71622228  .00182971  00000+0  13986-2 0  9999","l2":"2 63311  42.9994 291.6087 0001968 276.8356  83.2288 15.70834612 75265","cat":"starlink"},{"name":"STARLINK-11650 [DTC]","l1":"1 63312U 25057F   26183.57403610  .00210291  00000+0  16025-2 0  9990","l2":"2 63312  42.9998 292.2522 0001723 263.1789  96.8882 15.70821512 75275","cat":"starlink"},{"name":"STARLINK-11648 [DTC]","l1":"1 63313U 25057G   26183.70029355  .00151130  00000+0  11604-2 0  9990","l2":"2 63313  43.0003 291.4784 0001552 294.9341  65.1365 15.70832619 75266","cat":"starlink"},{"name":"STARLINK-11640 [DTC]","l1":"1 63314U 25057H   26183.56781366  .00164623  00000+0  12554-2 0  9998","l2":"2 63314  43.0000 292.2002 0002415 244.8798 115.1820 15.70948745 75243","cat":"starlink"},{"name":"STARLINK-11652 [DTC]","l1":"1 63315U 25057J   26183.68436722  .00273961  00000+0  20532-2 0  9996","l2":"2 63315  42.9995 291.3482 0002162 269.2669  90.7951 15.71022258 75295","cat":"starlink"},{"name":"STARLINK-11645 [DTC]","l1":"1 63316U 25057K   26183.57843485  .00144121  00000+0  11054-2 0  9997","l2":"2 63316  43.0010 292.2854 0001784 273.9294  86.1370 15.70880209 75273","cat":"starlink"},{"name":"STARLINK-11633 [DTC]","l1":"1 63317U 25057L   26183.72140100  .00156812  00000+0  12018-2 0  9990","l2":"2 63317  43.0002 290.7512 0001533 290.6209  69.4494 15.70856904 75279","cat":"starlink"},{"name":"STARLINK-11593 [DTC]","l1":"1 63318U 25057M   26183.73201929  .00169897  00000+0  12997-2 0  9992","l2":"2 63318  42.9995 290.8367 0001214 279.3077  80.7653 15.70856798 75309","cat":"starlink"},{"name":"STARLINK-11588 [DTC]","l1":"1 63319U 25057N   26182.66171279  .00217796  00000+0  16480-2 0  9991","l2":"2 63319  43.0008 297.4351 0002298 273.5113  86.5492 15.70966012 75107","cat":"starlink"},{"name":"STARLINK-33671","l1":"1 63320U 25057P   26183.79118576  .00020517  00000+0  75228-3 0  9998","l2":"2 63320  43.0007  90.1826 0000226 147.3658 212.7208 15.27612428 73505","cat":"starlink"},{"name":"STARLINK-33650","l1":"1 63321U 25057Q   26183.46664035  .00025849  00000+0  94494-3 0  9998","l2":"2 63321  43.0002 102.4290 0001707 282.6421  77.4240 15.27601810 73290","cat":"starlink"},{"name":"STARLINK-33689","l1":"1 63322U 25057R   26183.78586819  .00027380  00000+0  10007-2 0  9996","l2":"2 63322  42.9991 100.5226 0000689 145.3440 214.7456 15.27581516 73383","cat":"starlink"},{"name":"STARLINK-33607","l1":"1 63323U 25057S   26183.74232402  .00005751  00000+0  21839-3 0  9993","l2":"2 63323  43.0010 101.0656 0001156 264.4949  95.5771 15.27573849 73338","cat":"starlink"},{"name":"STARLINK-33619","l1":"1 63324U 25057T   26183.77688854  .00036172  00000+0  13187-2 0  9990","l2":"2 63324  43.0039 100.4526 0001856 278.9750  81.0892 15.27551344 73381","cat":"starlink"},{"name":"STARLINK-33612","l1":"1 63325U 25057U   26183.76674694  .00025841  00000+0  94493-3 0  9998","l2":"2 63325  43.0010 101.2406 0001332 241.3150 118.7568 15.27591723 73376","cat":"starlink"},{"name":"STARLINK-33672","l1":"1 63326U 25057V   26183.79229244  .00010902  00000+0  40533-3 0  9997","l2":"2 63326  42.9989 100.5542 0001115 258.7870 101.2856 15.27560838 73384","cat":"starlink"},{"name":"STARLINK-33625","l1":"1 63327U 25057W   26183.75856641  .00029617  00000+0  10811-2 0  9999","l2":"2 63327  43.0009  93.3960 0002162 272.8121  87.2483 15.27588347 73465","cat":"starlink"},{"name":"STARLINK-33699","l1":"1 63328U 25057X   26183.74699962  .00019157  00000+0  70366-3 0  9990","l2":"2 63328  43.0002  93.3039 0000441 198.5008 161.5827 15.27589260 73421","cat":"starlink"},{"name":"STARLINK-33674","l1":"1 63329U 25057Y   26183.75003397  .00017617  00000+0  64835-3 0  9996","l2":"2 63329  43.0015 101.1195 0000539 295.1974  64.8821 15.27571692 73374","cat":"starlink"},{"name":"YUNYAO-1 43","l1":"1 63344U 25059A   26183.78124580  .00004425  00000+0  26800-3 0  9999","l2":"2 63344  97.6112   5.0615 0015703  99.7864 260.5140 15.11019669 70659","cat":"other"},{"name":"YUNYAO-1 44","l1":"1 63345U 25059B   26183.76710448  .00003995  00000+0  24131-3 0  9998","l2":"2 63345  97.6101   5.0046 0018452 103.5563 256.7723 15.11131568 70657","cat":"other"},{"name":"YUNYAO-1 45","l1":"1 63346U 25059C   26183.75885458  .00003582  00000+0  21692-3 0  9993","l2":"2 63346  97.6127   5.1848 0017503 103.0362 257.2823 15.11121773 70659","cat":"other"},{"name":"YUNYAO-1 46","l1":"1 63347U 25059D   26183.72610917  .00004305  00000+0  26108-3 0  9998","l2":"2 63347  97.6120   5.0440 0013236  91.9104 268.3642 15.11011959 70643","cat":"other"},{"name":"YUNYAO-1 47","l1":"1 63348U 25059E   26183.78553097  .00004466  00000+0  26828-3 0  9997","l2":"2 63348  97.6093   5.1057 0017403 104.0485 256.2681 15.11288523 70659","cat":"other"},{"name":"YUNYAO-1 48","l1":"1 63349U 25059F   26183.76507565  .00003758  00000+0  22599-3 0  9999","l2":"2 63349  97.6107   5.2047 0016912 105.5485 254.7613 15.11354219 70650","cat":"other"},{"name":"LEMUR-2-UNTITLED-SC","l1":"1 63351U 25061A   26183.69134664  .00004335  00000+0  24444-3 0  9996","l2":"2 63351  97.5644 158.9412 0017905 206.6413 153.3900 15.13576910 69935","cat":"other"},{"name":"LEMUR-2-ESPERANZA","l1":"1 63352U 25061B   26183.66754356  .00004356  00000+0  24504-3 0  9990","l2":"2 63352  97.5653 159.0146 0017504 205.7921 154.2440 15.13670577 69934","cat":"other"},{"name":"LEMUR-2-KREMPEL-BRO2","l1":"1 63353U 25061C   26183.69004678  .00004465  00000+0  24787-3 0  9993","l2":"2 63353  97.5699 159.5902 0018655 198.2547 161.8017 15.14107661 69954","cat":"other"}]